start=new Date('2023-02-18T00:00:00.000Z').valueOf();
sats=[{"TIME_SYSTEM":"UTC","CENTER_NAME":"EARTH","FILE":"3804075","MEAN_MOTION":"15.08815934","GP_ID":"225837761","DECAY_DATE":null,"TLE_LINE2":"2 51983  53.2181   9.4464 0001265  87.7381 272.3756 15.08815934 52567","ECCENTRICITY":"0.00012650","MEAN_MOTION_DDOT":"0.0000000000000","RCS_SIZE":"LARGE","COUNTRY_CODE":"US","MEAN_MOTION_DOT":"0.00018203","INCLINATION":"53.2181","OBJECT_ID":"2022-025AD","MEAN_ELEMENT_THEORY":"SGP4","SEMIMAJOR_AXIS":"6917.954","ARG_OF_PERICENTER":"87.7381","CLASSIFICATION_TYPE":"U","RA_OF_ASC_NODE":"9.4464","BSTAR":"0.00115960000000","NORAD_CAT_ID":"51983","OBJECT_NAME":"STARLINK-3655","EPHEMERIS_TYPE":"0","APOAPSIS":"540.694","PERIAPSIS":"538.944","MEAN_ANOMALY":"272.3756","SITE":"AFETR","TLE_LINE1":"1 51983U 22025AD  23048.59893288  .00018203  00000-0  11596-2 0  9994","REF_FRAME":"TEME","REV_AT_EPOCH":"5256","OBJECT_TYPE":"PAYLOAD","EPOCH":"2023-02-17T14:22:27.800832","ELEMENT_SET_NO":"999","LAUNCH_DATE":"2022-03-09","PERIOD":"95.439"},{"DECAY_DATE":null,"GP_ID":"225836510","COUNTRY_CODE":"US","RCS_SIZE":"LARGE","ECCENTRICITY":"0.00017410","MEAN_MOTION_DDOT":"0.0000000000000","TLE_LINE2":"2 51984  53.2145   9.0254 0001741  59.4013 300.7151 15.08817605 52582","CENTER_NAME":"EARTH","TIME_SYSTEM":"UTC","MEAN_MOTION":"15.08817605","FILE":"3804075","SEMIMAJOR_AXIS":"6917.949","MEAN_ELEMENT_THEORY":"SGP4","CLASSIFICATION_TYPE":"U","ARG_OF_PERICENTER":"59.4013","MEAN_MOTION_DOT":"0.00012894","OBJECT_ID":"2022-025AE","INCLINATION":"53.2145","PERIAPSIS":"538.609","APOAPSIS":"541.018","BSTAR":"0.00082726000000","RA_OF_ASC_NODE":"9.0254","EPHEMERIS_TYPE":"0","OBJECT_NAME":"STARLINK-3664","NORAD_CAT_ID":"51984","ELEMENT_SET_NO":"999","OBJECT_TYPE":"PAYLOAD","EPOCH":"2023-02-17T16:40:14.634912","PERIOD":"95.439","LAUNCH_DATE":"2022-03-09","MEAN_ANOMALY":"300.7151","REF_FRAME":"TEME","REV_AT_EPOCH":"5258","TLE_LINE1":"1 51984U 22025AE  23048.69461383  .00012894  00000-0  82726-3 0  9997","SITE":"AFETR"},{"OBJECT_NAME":"STARLINK-3651","EPHEMERIS_TYPE":"0","NORAD_CAT_ID":"51985","BSTAR":"0.00206310000000","RA_OF_ASC_NODE":"11.2719","APOAPSIS":"541.017","PERIAPSIS":"538.704","REF_FRAME":"TEME","REV_AT_EPOCH":"5250","SITE":"AFETR","TLE_LINE1":"1 51985U 22025AF  23048.19412806  .00032665  00000-0  20631-2 0  9993","MEAN_ANOMALY":"274.9397","PERIOD":"95.440","LAUNCH_DATE":"2022-03-09","OBJECT_TYPE":"PAYLOAD","EPOCH":"2023-02-17T04:39:32.664384","ELEMENT_SET_NO":"999","MEAN_MOTION":"15.08802347","FILE":"3802730","TIME_SYSTEM":"UTC","CENTER_NAME":"EARTH","COUNTRY_CODE":"US","RCS_SIZE":"LARGE","TLE_LINE2":"2 51985  53.2174  11.2719 0001672  85.1786 274.9397 15.08802347 52505","MEAN_MOTION_DDOT":"0.0000000000000","ECCENTRICITY":"0.00016720","DECAY_DATE":null,"GP_ID":"225782499","INCLINATION":"53.2174","OBJECT_ID":"2022-025AF","MEAN_MOTION_DOT":"0.00032665","CLASSIFICATION_TYPE":"U","ARG_OF_PERICENTER":"85.1786","MEAN_ELEMENT_THEORY":"SGP4","SEMIMAJOR_AXIS":"6917.995"},{"RA_OF_ASC_NODE":"11.4312","BSTAR":"-0.00036414000000","NORAD_CAT_ID":"51986","EPHEMERIS_TYPE":"0","OBJECT_NAME":"STARLINK-3645","PERIAPSIS":"538.595","APOAPSIS":"541.045","MEAN_ANOMALY":"266.0143","TLE_LINE1":"1 51986U 22025AG  23048.15732305 -.00006075  00000-0 -36414-3 0  9994","SITE":"AFETR","REV_AT_EPOCH":"5250","REF_FRAME":"TEME","ELEMENT_SET_NO":"999","EPOCH":"2023-02-17T03:46:32.711520","OBJECT_TYPE":"PAYLOAD","LAUNCH_DATE":"2022-03-09","PERIOD":"95.439","CENTER_NAME":"EARTH","TIME_SYSTEM":"UTC","FILE":"3802730","MEAN_MOTION":"15.08815571","DECAY_DATE":null,"GP_ID":"225781249","ECCENTRICITY":"0.00017710","MEAN_MOTION_DDOT":"0.0000000000000","TLE_LINE2":"2 51986  53.2166  11.4312 0001771  94.1051 266.0143 15.08815571 52507","RCS_SIZE":"LARGE","COUNTRY_CODE":"US","MEAN_MOTION_DOT":"-0.00006075","INCLINATION":"53.2166","OBJECT_ID":"2022-025AG","SEMIMAJOR_AXIS":"6917.955","MEAN_ELEMENT_THEORY":"SGP4","ARG_OF_PERICENTER":"94.1051","CLASSIFICATION_TYPE":"U"},{"MEAN_MOTION_DOT":"0.00022736","OBJECT_ID":"2022-025AH","INCLINATION":"53.2161","SEMIMAJOR_AXIS":"6917.905","MEAN_ELEMENT_THEORY":"SGP4","CLASSIFICATION_TYPE":"U","ARG_OF_PERICENTER":"101.0272","CENTER_NAME":"EARTH","TIME_SYSTEM":"UTC","MEAN_MOTION":"15.08831837","FILE":"3804075","GP_ID":"225838261","DECAY_DATE":null,"COUNTRY_CODE":"US","RCS_SIZE":"LARGE","MEAN_MOTION_DDOT":"0.0000000000000","ECCENTRICITY":"0.00010820","TLE_LINE2":"2 51987  53.2161   8.0994 0001082 101.0272 259.0842 15.08831837 52612","MEAN_ANOMALY":"259.0842","REF_FRAME":"TEME","REV_AT_EPOCH":"5261","TLE_LINE1":"1 51987U 22025AH  23048.90069694  .00022736  00000-0  14423-2 0  9997","SITE":"AFETR","ELEMENT_SET_NO":"999","EPOCH":"2023-02-17T21:37:00.215616","OBJECT_TYPE":"PAYLOAD","PERIOD":"95.438","LAUNCH_DATE":"2022-03-09","BSTAR":"0.00144230000000","RA_OF_ASC_NODE":"8.0994","EPHEMERIS_TYPE":"0","OBJECT_NAME":"STARLINK-3644","NORAD_CAT_ID":"51987","PERIAPSIS":"539.022","APOAPSIS":"540.519"},{"SEMIMAJOR_AXIS":"6917.940","MEAN_ELEMENT_THEORY":"SGP4","ARG_OF_PERICENTER":"88.1184","CLASSIFICATION_TYPE":"U","MEAN_MOTION_DOT":"0.00000273","OBJECT_ID":"2022-025AJ","INCLINATION":"53.2146","DECAY_DATE":null,"GP_ID":"225837010","TLE_LINE2":"2 51988  53.2146   9.0745 0001403  88.1184 271.9969 15.08820556 52580","MEAN_MOTION_DDOT":"0.0000000000000","ECCENTRICITY":"0.00014030","RCS_SIZE":"LARGE","COUNTRY_CODE":"US","TIME_SYSTEM":"UTC","CENTER_NAME":"EARTH","FILE":"3804075","MEAN_MOTION":"15.08820556","EPOCH":"2023-02-17T16:24:20.449728","OBJECT_TYPE":"PAYLOAD","ELEMENT_SET_NO":"999","LAUNCH_DATE":"2022-03-09","PERIOD":"95.439","MEAN_ANOMALY":"271.9969","SITE":"AFETR","TLE_LINE1":"1 51988U 22025AJ  23048.68357002  .00000273  00000-0  35272-4 0  9995","REV_AT_EPOCH":"5258","REF_FRAME":"TEME","APOAPSIS":"540.775","PERIAPSIS":"538.834","RA_OF_ASC_NODE":"9.0745","BSTAR":"0.00003527200000","NORAD_CAT_ID":"51988","OBJECT_NAME":"STARLINK-3640","EPHEMERIS_TYPE":"0"},{"GP_ID":"225782000","DECAY_DATE":null,"TLE_LINE2":"2 51989  53.2153  10.7818 0001517 120.7079 239.4062 15.08848048 52524","ECCENTRICITY":"0.00015170","MEAN_MOTION_DDOT":"0.0000000000000","RCS_SIZE":"LARGE","COUNTRY_CODE":"US","TIME_SYSTEM":"UTC","CENTER_NAME":"EARTH","FILE":"3802730","MEAN_MOTION":"15.08848048","SEMIMAJOR_AXIS":"6917.856","MEAN_ELEMENT_THEORY":"SGP4","ARG_OF_PERICENTER":"120.7079","CLASSIFICATION_TYPE":"U","MEAN_MOTION_DOT":"0.00001272","INCLINATION":"53.2153","OBJECT_ID":"2022-025AK","APOAPSIS":"540.770","PERIAPSIS":"538.671","RA_OF_ASC_NODE":"10.7818","BSTAR":"0.00009798700000","NORAD_CAT_ID":"51989","OBJECT_NAME":"STARLINK-3642","EPHEMERIS_TYPE":"0","OBJECT_TYPE":"PAYLOAD","EPOCH":"2023-02-17T07:13:11.861472","ELEMENT_SET_NO":"999","LAUNCH_DATE":"2022-03-09","PERIOD":"95.437","MEAN_ANOMALY":"239.4062","SITE":"AFETR","TLE_LINE1":"1 51989U 22025AK  23048.30083173  .00001272  00000-0  97987-4 0  9991","REF_FRAME":"TEME","REV_AT_EPOCH":"5252"},{"ECCENTRICITY":"0.00003450","MEAN_MOTION_DDOT":"0.0000000000000","TLE_LINE2":"2 51990  53.2174 348.2520 0000345  91.2899 268.8133 15.08831414 52881","COUNTRY_CODE":"US","RCS_SIZE":"LARGE","DECAY_DATE":null,"GP_ID":"225838011","FILE":"3804075","MEAN_MOTION":"15.08831414","CENTER_NAME":"EARTH","TIME_SYSTEM":"UTC","ARG_OF_PERICENTER":"91.2899","CLASSIFICATION_TYPE":"U","SEMIMAJOR_AXIS":"6917.907","MEAN_ELEMENT_THEORY":"SGP4","INCLINATION":"53.2174","OBJECT_ID":"2022-025AL","MEAN_MOTION_DOT":"0.00019752","PERIAPSIS":"539.533","APOAPSIS":"540.010","NORAD_CAT_ID":"51990","EPHEMERIS_TYPE":"0","OBJECT_NAME":"STARLINK-3657","RA_OF_ASC_NODE":"348.2520","BSTAR":"0.00125590000000","LAUNCH_DATE":"2022-03-09","PERIOD":"95.438","ELEMENT_SET_NO":"999","OBJECT_TYPE":"PAYLOAD","EPOCH":"2023-02-17T20:46:39.820224","TLE_LINE1":"1 51990U 22025AL  23048.86573866  .00019752  00000-0  12559-2 0  9999","SITE":"AFETR","REV_AT_EPOCH":"5288","REF_FRAME":"TEME","MEAN_ANOMALY":"268.8133"},{"NORAD_CAT_ID":"51991","EPHEMERIS_TYPE":"0","OBJECT_NAME":"STARLINK-3652","RA_OF_ASC_NODE":"8.1466","BSTAR":"-0.00010737000000","PERIAPSIS":"539.109","APOAPSIS":"540.525","TLE_LINE1":"1 51991U 22025AM  23048.88965308 -.00001995  00000-0 -10737-3 0  9997","SITE":"AFETR","REF_FRAME":"TEME","REV_AT_EPOCH":"5261","MEAN_ANOMALY":"237.9444","LAUNCH_DATE":"2022-03-09","PERIOD":"95.439","ELEMENT_SET_NO":"999","OBJECT_TYPE":"PAYLOAD","EPOCH":"2023-02-17T21:21:06.026112","FILE":"3804075","MEAN_MOTION":"15.08816560","CENTER_NAME":"EARTH","TIME_SYSTEM":"UTC","MEAN_MOTION_DDOT":"0.0000000000000","ECCENTRICITY":"0.00010230","TLE_LINE2":"2 51991  53.2155   8.1466 0001023 122.1647 237.9444 15.08816560 52619","RCS_SIZE":"LARGE","COUNTRY_CODE":"US","GP_ID":"225837762","DECAY_DATE":null,"OBJECT_ID":"2022-025AM","INCLINATION":"53.2155","MEAN_MOTION_DOT":"-0.00001995","ARG_OF_PERICENTER":"122.1647","CLASSIFICATION_TYPE":"U","MEAN_ELEMENT_THEORY":"SGP4","SEMIMAJOR_AXIS":"6917.952"},{"ARG_OF_PERICENTER":"62.0813","CLASSIFICATION_TYPE":"U","MEAN_ELEMENT_THEORY":"SGP4","SEMIMAJOR_AXIS":"6917.926","OBJECT_ID":"2022-025AN","INCLINATION":"53.2164","MEAN_MOTION_DOT":"-0.00000414","TLE_LINE2":"2 51992  53.2164 349.7926 0001481  62.0813 298.0329 15.08825221 53952","MEAN_MOTION_DDOT":"0.0000000000000","ECCENTRICITY":"0.00014810","RCS_SIZE":"LARGE","COUNTRY_CODE":"US","DECAY_DATE":null,"GP_ID":"225785837","FILE":"3802819","MEAN_MOTION":"15.08825221","TIME_SYSTEM":"UTC","CENTER_NAME":"EARTH","LAUNCH_DATE":"2022-03-09","PERIOD":"95.438","OBJECT_TYPE":"PAYLOAD","EPOCH":"2023-02-17T12:33:49.462560","ELEMENT_SET_NO":"999","SITE":"AFETR","TLE_LINE1":"1 51992U 22025AN  23048.52348915 -.00000414  00000-0 -79448-5 0  9999","REF_FRAME":"TEME","REV_AT_EPOCH":"5395","MEAN_ANOMALY":"298.0329","APOAPSIS":"540.815","PERIAPSIS":"538.766","NORAD_CAT_ID":"51992","OBJECT_NAME":"STARLINK-3643","EPHEMERIS_TYPE":"0","RA_OF_ASC_NODE":"349.7926","BSTAR":"-0.00000794480000"}];
